{"type": "FeatureCollection", "features": [{"type": "Feature", "properties": {"institution": "Universit\u00e4t Paderborn", "department": "IMT"}, "geometry": {"type": "Point", "coordinates": [8.7724141, 51.707521]}}, {"type": "Feature", "properties": {"institution": "Qualitus GmbH", "department": "Hosting & IT"}, "geometry": {"type": "Point", "coordinates": [6.9013982, 50.9568735]}}, {"type": "Feature", "properties": {"institution": "Pasifik Cipta Mandiri", "department": "Support"}, "geometry": {"type": "Point", "coordinates": [106.827168, -6.1754049]}}, {"type": "Feature", "properties": {"institution": "The University of The South Pacific", "department": "ITS"}, "geometry": {"type": "Point", "coordinates": [178.4421662, -18.1415884]}}, {"type": "Feature", "properties": {"institution": "University of Vienna", "department": "Vienna University Computer Center"}, "geometry": {"type": "Point", "coordinates": [16.3582213, 48.2131307]}}, {"type": "Feature", "properties": {"institution": "HS Harz", "department": "ITZ MLU on behalf of HS Harz"}, "geometry": {"type": "Point", "coordinates": [11.9419644, 51.4962608]}}, {"type": "Feature", "properties": {"institution": "Hochschule Anhalt", "department": "FB Informatik und Sprachen"}, "geometry": {"type": "Point", "coordinates": [11.9695617, 51.7542996]}}, {"type": "Feature", "properties": {"institution": "Stanford Law School", "department": "IT"}, "geometry": {"type": "Point", "coordinates": [-122.167553, 37.4240548]}}, {"type": "Feature", "properties": {"institution": "ca", "department": "ca"}, "geometry": {"type": "Point", "coordinates": [72.0806119, 24.2735443]}}, {"type": "Feature", "properties": {"institution": "Emeritus China", "department": "Course product and design"}, "geometry": {"type": "Point", "coordinates": [104.999927, 35.000074]}}, {"type": "Feature", "properties": {"institution": "Universit\u00e4t Stuttgart", "department": "IZUS/TIK"}, "geometry": {"type": "Point", "coordinates": [9.0944213, 48.7404368]}}, {"type": "Feature", "properties": {"institution": "Friedrich-Schiller-Universit\u00e4t Jena", "department": "Universit\u00e4tsrechenzentrum/Multimediazentrum"}, "geometry": {"type": "Point", "coordinates": [11.5816056, 50.9287899]}}, {"type": "Feature", "properties": {"institution": "oncampus GmbH", "department": "IT"}, "geometry": {"type": "Point", "coordinates": [10.684738, 53.866444]}}, {"type": "Feature", "properties": {"institution": "Universit\u00e4t Erlangen-N\u00fcrnberg", "department": "MMZ"}, "geometry": {"type": "Point", "coordinates": [10.9727533, 49.5877419]}}, {"type": "Feature", "properties": {"institution": "Uni Ulm"}, "geometry": {"type": "Point", "coordinates": [-92.0658112, 32.5318286]}}, {"type": "Feature", "properties": {"institution": "Universit\u00e4t Bern", "department": "iLUB"}, "geometry": {"type": "Point", "coordinates": [7.4369747, 46.9500797]}}, {"type": "Feature", "properties": {"institution": "E.I."}, "geometry": {"type": "Point", "coordinates": [28.6410266, 44.3401705]}}, {"type": "Feature", "properties": {"institution": "Hochschule Wismar", "department": "Stabstelle DEQ"}, "geometry": {"type": "Point", "coordinates": [11.445834, 53.8899678]}}, {"type": "Feature", "properties": {"institution": "P\u00e4dagogische Hochschule Nieder\u00f6sterreich"}, "geometry": {"type": "Point", "coordinates": [16.2554071, 48.0095418]}}, {"type": "Feature", "properties": {"institution": "RWTH Aachen University", "department": "IT Center"}, "geometry": {"type": "Point", "coordinates": [6.0655204, 50.7812017]}}, {"type": "Feature", "properties": {"institution": "Berliner Hochschule f\u00fcr Technik", "department": "Hochschulrechenzentrum"}, "geometry": {"type": "Point", "coordinates": [13.3444152, 52.5362768]}}, {"type": "Feature", "properties": {"institution": "HU Berlin", "department": "CMS"}, "geometry": {"type": "Point", "coordinates": [13.3877686, 52.5175184]}}, {"type": "Feature", "properties": {"institution": "ETHZ"}, "geometry": {"type": "Point", "coordinates": [8.5374914, 47.413218]}}, {"type": "Feature", "properties": {"institution": "TU Bergakademie Freiberg", "department": "Medienzentrum"}, "geometry": {"type": "Point", "coordinates": [13.3409037, 50.9187639]}}, {"type": "Feature", "properties": {"institution": "Uni Konstanz", "department": "KIM"}, "geometry": {"type": "Point", "coordinates": [9.1882624, 47.6899569]}}, {"type": "Feature", "properties": {"institution": "Qualitus GmbH", "department": "Hosting & IT"}, "geometry": {"type": "Point", "coordinates": [6.9013982, 50.9568735]}}, {"type": "Feature", "properties": {"institution": "Qualitus GmbH"}, "geometry": {"type": "Point", "coordinates": [6.9013982, 50.9568735]}}, {"type": "Feature", "properties": {"institution": "Osnabr\u00fcck University", "department": "virtUOS"}, "geometry": {"type": "Point", "coordinates": [8.0411048, 52.2724804]}}, {"type": "Feature", "properties": {"institution": "Teltek", "department": "Sysadmin Dpt"}, "geometry": {"type": "Point", "coordinates": [-4.8379791, 39.3260685]}}, {"type": "Feature", "properties": {"institution": "Higher School of Economics"}, "geometry": {"type": "Point", "coordinates": [37.5418935, 55.8067509]}}, {"type": "Feature", "properties": {"institution": "University of Cape Town", "department": "Centre for Innovation in Learning and Teaching"}, "geometry": {"type": "Point", "coordinates": [18.4675777, -33.9567558]}}, {"type": "Feature", "properties": {"institution": "Yoga Vidya e.V.", "department": "Elearning"}, "geometry": {"type": "Point", "coordinates": [8.9731695, 51.8801277]}}, {"type": "Feature", "properties": {"institution": "Universitat Politecnica de Valencia", "department": "ASIC"}, "geometry": {"type": "Point", "coordinates": [-0.3420311, 39.4808517]}}, {"type": "Feature", "properties": {"institution": "Martin-Luther-Universit\u00e4t Halle-Wittenberg", "department": "ITZ - Abt. Anwendungssysteme"}, "geometry": {"type": "Point", "coordinates": [11.9419644, 51.4962608]}}, {"type": "Feature", "properties": {"institution": "Self", "department": "IT"}, "geometry": {"type": "Point", "coordinates": [77.0905891, 28.4396186]}}, {"type": "Feature", "properties": {"institution": "Martin-Luther-Universit\u00e4t Halle-Wittenberg", "department": "ITZ - Abt. Anwendungssysteme"}, "geometry": {"type": "Point", "coordinates": [11.9419644, 51.4962608]}}, {"type": "Feature", "properties": {"institution": "Universit\u00e4t Vechta", "department": "Rechenzentrum"}, "geometry": {"type": "Point", "coordinates": [8.2948787, 52.7198937]}}, {"type": "Feature", "properties": {"institution": "Medical University of Graz", "department": "Executive department teaching with media"}, "geometry": {"type": "Point", "coordinates": [15.4480408, 47.0771715]}}, {"type": "Feature", "properties": {"institution": "Univesity of Helsinki"}, "geometry": {"type": "Point", "coordinates": [24.9435408, 60.1666204]}}, {"type": "Feature", "properties": {"institution": "Yoga Vidya e.V.", "department": "Elearning"}, "geometry": {"type": "Point", "coordinates": [8.9731695, 51.8801277]}}, {"type": "Feature", "properties": {"institution": "Univesity of Helsinki", "department": "IT Center"}, "geometry": {"type": "Point", "coordinates": [24.9435408, 60.1666204]}}, {"type": "Feature", "properties": {"institution": "HFT STuttgart", "department": "IZ-ITO"}, "geometry": {"type": "Point", "coordinates": [9.1725247, 48.7802741]}}, {"type": "Feature", "properties": {"institution": "Universit\u00e4t Duisburg-Essen", "department": "ZIM"}, "geometry": {"type": "Point", "coordinates": [7.005847, 51.4641041]}}, {"type": "Feature", "properties": {"institution": "Uni Ulm"}, "geometry": {"type": "Point", "coordinates": [-92.0658112, 32.5318286]}}, {"type": "Feature", "properties": {"institution": "\u0410\u0423 \u0412\u041e \"\u041a\u043e\u0440\u043f\u043e\u0440\u0430\u0442\u0438\u0432\u043d\u044b\u0439 \u0443\u043d\u0438\u0432\u0435\u0440\u0441\u0438\u0442\u0435\u0442 \u041f\u0440\u0430\u0432\u0438\u0442\u0435\u043b\u044c\u0441\u0442\u0432\u0430 \u0412\u043e\u0440\u043e\u043d\u0435\u0436\u0441\u043a\u043e\u0439 \u043e\u0431\u043b\u0430\u0441\u0442\u0438\"\""}, "geometry": {"type": "Point", "coordinates": [39.2005858, 51.6605982]}}, {"type": "Feature", "properties": {"institution": "TU Wien", "department": "Campus Software Development"}, "geometry": {"type": "Point", "coordinates": [16.3696473, 48.1946309]}}, {"type": "Feature", "properties": {"institution": "University of Bergen", "department": "IT"}, "geometry": {"type": "Point", "coordinates": [5.3313021, 60.3809342]}}, {"type": "Feature", "properties": {"institution": "Johannes Kepler University Linz", "department": "Digital Teaching and Learning Services"}, "geometry": {"type": "Point", "coordinates": [14.3179388, 48.3362799]}}, {"type": "Feature", "properties": {"institution": "IT- und Medienzentrum Rostock", "department": "IT-Anwendung"}, "geometry": {"type": "Point", "coordinates": [12.1090654, 54.0935697]}}, {"type": "Feature", "properties": {"institution": "UofT", "department": "LSM"}, "geometry": {"type": "Point", "coordinates": [-79.3839347, 43.6534817]}}, {"type": "Feature", "properties": {"institution": "ETH Z\u00fcrich", "department": "ID INFRA"}, "geometry": {"type": "Point", "coordinates": [8.5374914, 47.413218]}}, {"type": "Feature", "properties": {"institution": "Osnabr\u00fcck University", "department": "virtUOS"}, "geometry": {"type": "Point", "coordinates": [8.0411048, 52.2724804]}}, {"type": "Feature", "properties": {"institution": "Universit\u00e4t Bremen", "department": "Zentrum f\u00fcr Multimedia in der Lehre"}, "geometry": {"type": "Point", "coordinates": [8.8522964, 53.1084834]}}, {"type": "Feature", "properties": {"institution": "VIAVENDO"}, "geometry": {"type": "Point", "coordinates": [10.4090571, 47.7730969]}}, {"type": "Feature", "properties": {"institution": "ENSA Nantes", "department": "Informatique"}, "geometry": {"type": "Point", "coordinates": [-1.5577947, 47.2074883]}}, {"type": "Feature", "properties": {"institution": "Magnum Manufacturing", "department": "IT"}, "geometry": {"type": "Point", "coordinates": [-100.445882, 39.7837304]}}, {"type": "Feature", "properties": {"institution": "Hochschule Geisenheim University", "department": "VL2 Hochschuldidaktik und eLearning"}, "geometry": {"type": "Point", "coordinates": [7.9621724, 49.9849263]}}, {"type": "Feature", "properties": {"institution": "2xstream"}, "geometry": {"type": "Point", "coordinates": [-3.2765753, 54.7023545]}}, {"type": "Feature", "properties": {"institution": "Wiener Schule f\u00fcr Osteopathie", "department": "IT"}, "geometry": {"type": "Point", "coordinates": [16.3685367, 48.1989268]}}, {"type": "Feature", "properties": {"institution": "UL", "department": "URZ"}, "geometry": {"type": "Point", "coordinates": [12.3747329, 51.3406321]}}, {"type": "Feature", "properties": {"institution": "Universit\u00e4t Paderborn", "department": "IMT"}, "geometry": {"type": "Point", "coordinates": [8.772276, 51.7096768]}}, {"type": "Feature", "properties": {"institution": "Hochschule f\u00fcr Technik, Stuttgart", "department": "Informationszentrum"}, "geometry": {"type": "Point", "coordinates": [9.1725247, 48.7802741]}}, {"type": "Feature", "properties": {"institution": "University of Toronto", "department": "Faculty of Dentistry"}, "geometry": {"type": "Point", "coordinates": [-79.3870627, 43.6562982]}}, {"type": "Feature", "properties": {"institution": "Uni Konstanz", "department": "KIM"}, "geometry": {"type": "Point", "coordinates": [9.1882624, 47.6899569]}}, {"type": "Feature", "properties": {"institution": "Hope Consultants International Ltd."}, "geometry": {"type": "Point", "coordinates": [-3.2765753, 54.7023545]}}, {"type": "Feature", "properties": {"institution": "Universit\u00e4t Konstanz", "department": "KIM"}, "geometry": {"type": "Point", "coordinates": [9.1882624, 47.6899569]}}, {"type": "Feature", "properties": {"institution": "FHI Berlin", "department": "PP&B"}, "geometry": {"type": "Point", "coordinates": [13.2812118, 52.4496577]}}, {"type": "Feature", "properties": {"institution": "RH K\u00f6ln"}, "geometry": {"type": "Point", "coordinates": [7.0644885, 50.8832667]}}, {"type": "Feature", "properties": {"institution": "studiumdigitale", "department": "Medientechnologie"}, "geometry": {"type": "Point", "coordinates": [8.6718902, 50.130244]}}, {"type": "Feature", "properties": {"institution": "Conseil D\u00e9partemental de Guadeloupe"}, "geometry": {"type": "Point", "coordinates": [-61.7333373, 16.0000778]}}, {"type": "Feature", "properties": {"institution": "University of Houston", "department": "Streaming Media"}, "geometry": {"type": "Point", "coordinates": [-95.3440627, 29.7207902]}}, {"type": "Feature", "properties": {"institution": "ETHZ"}, "geometry": {"type": "Point", "coordinates": [8.5374914, 47.413218]}}, {"type": "Feature", "properties": {"institution": "Ivanovo State University of Chemistry and Technology", "department": "IT Department"}, "geometry": {"type": "Point", "coordinates": [40.9812104, 56.9956855]}}, {"type": "Feature", "properties": {"institution": "UIBK", "department": "Digital media"}, "geometry": {"type": "Point", "coordinates": [11.3839167, 47.2621808]}}, {"type": "Feature", "properties": {"institution": "TU Braunschweig - Gau\u00df-IT-Zentrum", "department": "Abteilung Server"}, "geometry": {"type": "Point", "coordinates": [10.5417548, 52.2765041]}}, {"type": "Feature", "properties": {"institution": "CERN", "department": "IT"}, "geometry": {"type": "Point", "coordinates": [6.1466014, 46.2017559]}}, {"type": "Feature", "properties": {"institution": "Fachhochschule Potsdam", "department": "Zentrale IT"}, "geometry": {"type": "Point", "coordinates": [13.0507812, 52.4121432]}}, {"type": "Feature", "properties": {"institution": "University of Manchester", "department": "IT Services"}, "geometry": {"type": "Point", "coordinates": [-2.2330858, 53.4660226]}}, {"type": "Feature", "properties": {"institution": "Hochschule f\u00fcr Technik, Stuttgart", "department": "Informationszentrum"}, "geometry": {"type": "Point", "coordinates": [9.1725247, 48.7802741]}}, {"type": "Feature", "properties": {"institution": "Verein zur F\u00f6rderung der wissenschaftlichen Weiterbildung an der Hochschule Bremerhaven e.V."}, "geometry": {"type": "Point", "coordinates": [8.5830283, 53.5400029]}}, {"type": "Feature", "properties": {"institution": "University of Manchester", "department": "IT Services"}, "geometry": {"type": "Point", "coordinates": [-2.2330858, 53.4660226]}}, {"type": "Feature", "properties": {"institution": "Universit\u00e9 Clermont Auvergne", "department": "IT"}, "geometry": {"type": "Point", "coordinates": [3.0917595, 45.7719719]}}, {"type": "Feature", "properties": {"institution": "University of Manchester", "department": "IT Services"}, "geometry": {"type": "Point", "coordinates": [-2.2330858, 53.4660226]}}, {"type": "Feature", "properties": {"institution": "Verein zur F\u00f6rderung der wissenschaftlichen Weiterbildung an der Hochschule Bremerhaven e.V."}, "geometry": {"type": "Point", "coordinates": [8.5830283, 53.5400029]}}, {"type": "Feature", "properties": {"institution": "Verein zur F\u00f6rderung der wissenschaftlichen Weiterbildung an der Hochschule Bremerhaven e.V."}, "geometry": {"type": "Point", "coordinates": [8.5830283, 53.5400029]}}, {"type": "Feature", "properties": {"institution": "Innovation Campus"}, "geometry": {"type": "Point", "coordinates": [-88.0325506, 43.0473721]}}, {"type": "Feature", "properties": {"institution": "Saperessere"}, "geometry": {"type": "Point", "coordinates": [12.4829321, 41.8933203]}}, {"type": "Feature", "properties": {"institution": "Eummena"}, "geometry": {"type": "Point", "coordinates": [4.6667145, 50.6402809]}}, {"type": "Feature", "properties": {"institution": "Lamhas Satellite Services Ltd"}, "geometry": {"type": "Point", "coordinates": [77.2090057, 28.6138954]}}, {"type": "Feature", "properties": {"institution": "UPRRP", "department": "DTAA"}, "geometry": {"type": "Point", "coordinates": [-66.0441379, 18.4024855]}}, {"type": "Feature", "properties": {"institution": "ETHZ"}, "geometry": {"type": "Point", "coordinates": [8.5374914, 47.413218]}}, {"type": "Feature", "properties": {"institution": "Universidad de Extremadura", "department": "Campus Virtual"}, "geometry": {"type": "Point", "coordinates": [-6.3672119, 39.4814756]}}, {"type": "Feature", "properties": {"institution": "Leibniz-Rechenzentrum der Bayerischen Akademie der Wissenschaften"}, "geometry": {"type": "Point", "coordinates": [11.6677965, 48.2615014]}}, {"type": "Feature", "properties": {"institution": "Waldorfschule Chemnitz"}, "geometry": {"type": "Point", "coordinates": [12.898098, 50.8616203]}}, {"type": "Feature", "properties": {"institution": "Universit\u00e4t Erlangen-N\u00fcrnberg", "department": "MMZ"}, "geometry": {"type": "Point", "coordinates": [10.9727533, 49.5877419]}}, {"type": "Feature", "properties": {"institution": "Harvard University", "department": "DCE"}, "geometry": {"type": "Point", "coordinates": [-71.1222139, 42.3657432]}}, {"type": "Feature", "properties": {"institution": "ETH Z\u00fcrich", "department": "ID INFRA"}, "geometry": {"type": "Point", "coordinates": [8.5374914, 47.413218]}}, {"type": "Feature", "properties": {"institution": "Carl Remigius Fresenius Education Group / Hochschule Fresenius", "department": "IT"}, "geometry": {"type": "Point", "coordinates": [8.2661891, 50.2211047]}}, {"type": "Feature", "properties": {"institution": "shio solutions GmbH", "department": "tales.media"}, "geometry": {"type": "Point", "coordinates": [7.6409248, 51.9526118]}}, {"type": "Feature", "properties": {"institution": "Opencast"}, "geometry": {"type": "Point", "coordinates": [-4.3429928, 53.3867839]}}, {"type": "Feature", "properties": {"institution": "UMSA", "department": "university"}, "geometry": {"type": "Point", "coordinates": [-68.1300381, -16.5048959]}}, {"type": "Feature", "properties": {"institution": "Pizza Hut", "department": "Toppings"}, "geometry": {"type": "Point", "coordinates": [-3.7804247, 51.592956]}}, {"type": "Feature", "properties": {"institution": "asdf", "department": "fds"}, "geometry": {"type": "Point", "coordinates": [0.8826302, 49.6640647]}}, {"type": "Feature", "properties": {"institution": "Universidad de O'higgins", "department": "TI"}, "geometry": {"type": "Point", "coordinates": [-70.907822, -53.1625688]}}, {"type": "Feature", "properties": {"institution": "CERN", "department": "IT"}, "geometry": {"type": "Point", "coordinates": [6.0556169, 46.2333936]}}, {"type": "Feature", "properties": {"institution": "AWO Psychiatrie Akademie GgmbH"}, "geometry": {"type": "Point", "coordinates": [10.8126117, 52.2437748]}}, {"type": "Feature", "properties": {"institution": "Universidad de O'Higgins"}, "geometry": {"type": "Point", "coordinates": [-70.7396854, -34.1683355]}}, {"type": "Feature", "properties": {"institution": "BIMSA", "department": "IT"}, "geometry": {"type": "Point", "coordinates": [116.6589196, 40.400318]}}, {"type": "Feature", "properties": {"institution": "BIMSA", "department": "IT"}, "geometry": {"type": "Point", "coordinates": [116.6743055, 40.4100383]}}, {"type": "Feature", "properties": {"institution": "Stride", "department": "Education"}, "geometry": {"type": "Point", "coordinates": [-77.3585955, 38.9587514]}}, {"type": "Feature", "properties": {"institution": "ETHZ"}, "geometry": {"type": "Point", "coordinates": [8.5374914, 47.413218]}}]}